{
  "type": "FeatureCollection",
  "features": [
    {
      "type": "Feature",
      "properties": {
        "norad_id": 31287,
        "name": "FENGYUN 1C DEB",
        "group": "fengyun-1c-debris",
        "lat": 65.45945781511612,
        "lon": 35.60401789789209,
        "alt_km": 777.0100716557363,
        "timestamp": "2025-12-25T22:42:17.293079+00:00",
        "meta_object_name": "FENGYUN 1C DEB",
        "meta_object_id": "1999-025BNV",
        "meta_epoch": "2025-12-17T09:14:55.199040",
        "meta_mean_motion": 14.280549,
        "meta_eccentricity": 0.0027206,
        "meta_inclination": 99.41,
        "meta_ra_of_asc_node": 47.6846,
        "meta_arg_of_pericenter": 50.1324,
        "meta_mean_anomaly": 310.2241,
        "meta_ephemeris_type": 0,
        "meta_classification_type": "U",
        "meta_norad_cat_id": 31287,
        "meta_element_set_no": 999,
        "meta_rev_at_epoch": 96752,
        "meta_bstar": 0.0011667317,
        "meta_mean_motion_dot": 2.86e-05,
        "meta_mean_motion_ddot": 0,
        "tle_line1": "1 31287U 99025BNV 25351.38536110  .00002860  00000+0  11667-2 0  9997",
        "tle_line2": "2 31287  99.4100  47.6846 0027206  50.1324 310.2241 14.28054900967528"
      },
      "geometry": {
        "type": "Point",
        "coordinates": [
          35.60401789789209,
          65.45945781511612
        ]
      }
    },
    {
      "type": "Feature",
      "properties": {
        "norad_id": 31288,
        "name": "FENGYUN 1C DEB",
        "group": "fengyun-1c-debris",
        "lat": -29.71573653134721,
        "lon": -25.50167984851391,
        "alt_km": 570.945302498535,
        "timestamp": "2025-12-25T22:42:17.293089+00:00",
        "meta_object_name": "FENGYUN 1C DEB",
        "meta_object_id": "1999-025BNW",
        "meta_epoch": "2025-12-24T22:23:00.954816",
        "meta_mean_motion": 14.97075629,
        "meta_eccentricity": 0.00229353,
        "meta_inclination": 98.7457,
        "meta_ra_of_asc_node": 158.4063,
        "meta_arg_of_pericenter": 262.1064,
        "meta_mean_anomaly": 249.5224,
        "meta_ephemeris_type": 0,
        "meta_classification_type": "U",
        "meta_norad_cat_id": 31288,
        "meta_element_set_no": 999,
        "meta_rev_at_epoch": 97739,
        "meta_bstar": 0.0059571696,
        "meta_mean_motion_dot": 0.00069628,
        "meta_mean_motion_ddot": 0,
        "tle_line1": "1 31288U 99025BNW 25358.93264994  .00069628  00000+0  59572-2 0  9996",
        "tle_line2": "2 31288  98.7457 158.4063 0022935 262.1064 249.5224 14.97075629977396"
      },
      "geometry": {
        "type": "Point",
        "coordinates": [
          -25.50167984851391,
          -29.71573653134721
        ]
      }
    },
    {
      "type": "Feature",
      "properties": {
        "norad_id": 31293,
        "name": "FENGYUN 1C DEB",
        "group": "fengyun-1c-debris",
        "lat": -75.36505341566055,
        "lon": 152.73151853922138,
        "alt_km": 740.4835196050599,
        "timestamp": "2025-12-25T22:42:17.293099+00:00",
        "meta_object_name": "FENGYUN 1C DEB",
        "meta_object_id": "1999-025BPB",
        "meta_epoch": "2025-12-22T06:13:51.554208",
        "meta_mean_motion": 14.30816344,
        "meta_eccentricity": 0.01257922,
        "meta_inclination": 98.4224,
        "meta_ra_of_asc_node": 3.727,
        "meta_arg_of_pericenter": 216.5399,
        "meta_mean_anomaly": 142.7154,
        "meta_ephemeris_type": 0,
        "meta_classification_type": "U",
        "meta_norad_cat_id": 31293,
        "meta_element_set_no": 999,
        "meta_rev_at_epoch": 65380,
        "meta_bstar": 6.4145544e-05,
        "meta_mean_motion_dot": 1.39e-06,
        "meta_mean_motion_ddot": 0,
        "tle_line1": "1 31293U 99025BPB 25356.25962447  .00000139  00000+0  64146-4 0  9990",
        "tle_line2": "2 31293  98.4224   3.7270 0125792 216.5399 142.7154 14.30816344653809"
      },
      "geometry": {
        "type": "Point",
        "coordinates": [
          152.73151853922138,
          -75.36505341566055
        ]
      }
    },
    {
      "type": "Feature",
      "properties": {
        "norad_id": 31294,
        "name": "FENGYUN 1C DEB",
        "group": "fengyun-1c-debris",
        "lat": -54.22582272552524,
        "lon": 7.046465964050868,
        "alt_km": 776.4880800571964,
        "timestamp": "2025-12-25T22:42:17.293111+00:00",
        "meta_object_name": "FENGYUN 1C DEB",
        "meta_object_id": "1999-025BPC",
        "meta_epoch": "2025-12-19T22:44:39.754176",
        "meta_mean_motion": 14.15326352,
        "meta_eccentricity": 0.0099306,
        "meta_inclination": 98.5431,
        "meta_ra_of_asc_node": 349.2579,
        "meta_arg_of_pericenter": 320.3267,
        "meta_mean_anomaly": 39.0671,
        "meta_ephemeris_type": 0,
        "meta_classification_type": "U",
        "meta_norad_cat_id": 31294,
        "meta_element_set_no": 999,
        "meta_rev_at_epoch": 96955,
        "meta_bstar": 0.00037135,
        "meta_mean_motion_dot": 7.16e-06,
        "meta_mean_motion_ddot": 0,
        "tle_line1": "1 31294U 99025BPC 25353.94768234  .00000716  00000+0  37135-3 0  9990",
        "tle_line2": "2 31294  98.5431 349.2579 0099306 320.3267  39.0671 14.15326352969552"
      },
      "geometry": {
        "type": "Point",
        "coordinates": [
          7.046465964050868,
          -54.22582272552524
        ]
      }
    },
    {
      "type": "Feature",
      "properties": {
        "norad_id": 31295,
        "name": "FENGYUN 1C DEB",
        "group": "fengyun-1c-debris",
        "lat": 81.29228447636564,
        "lon": 76.37282702015736,
        "alt_km": 926.1446947614022,
        "timestamp": "2025-12-25T22:42:17.293122+00:00",
        "meta_object_name": "FENGYUN 1C DEB",
        "meta_object_id": "1999-025BPD",
        "meta_epoch": "2025-12-25T11:56:32.906976",
        "meta_mean_motion": 13.96834303,
        "meta_eccentricity": 0.0077253,
        "meta_inclination": 98.3163,
        "meta_ra_of_asc_node": 183.2226,
        "meta_arg_of_pericenter": 215.0084,
        "meta_mean_anomaly": 144.5989,
        "meta_ephemeris_type": 0,
        "meta_classification_type": "U",
        "meta_norad_cat_id": 31295,
        "meta_element_set_no": 999,
        "meta_rev_at_epoch": 95681,
        "meta_bstar": 0.00010445,
        "meta_mean_motion_dot": 1.11e-06,
        "meta_mean_motion_ddot": 0,
        "tle_line1": "1 31295U 99025BPD 25359.49760309  .00000111  00000+0  10445-3 0  9996",
        "tle_line2": "2 31295  98.3163 183.2226 0077253 215.0084 144.5989 13.96834303956819"
      },
      "geometry": {
        "type": "Point",
        "coordinates": [
          76.37282702015736,
          81.29228447636564
        ]
      }
    },
    {
      "type": "Feature",
      "properties": {
        "norad_id": 31296,
        "name": "FENGYUN 1C DEB",
        "group": "fengyun-1c-debris",
        "lat": -35.61776460509783,
        "lon": 89.77457081429627,
        "alt_km": 651.0191606774588,
        "timestamp": "2025-12-25T22:42:17.293134+00:00",
        "meta_object_name": "FENGYUN 1C DEB",
        "meta_object_id": "1999-025BPE",
        "meta_epoch": "2025-12-24T17:59:42.169632",
        "meta_mean_motion": 14.72040525,
        "meta_eccentricity": 0.00199479,
        "meta_inclination": 99.0666,
        "meta_ra_of_asc_node": 275.0111,
        "meta_arg_of_pericenter": 172.8681,
        "meta_mean_anomaly": 187.2811,
        "meta_ephemeris_type": 0,
        "meta_classification_type": "U",
        "meta_norad_cat_id": 31296,
        "meta_element_set_no": 999,
        "meta_rev_at_epoch": 97526,
        "meta_bstar": 0.0042877681,
        "meta_mean_motion_dot": 0.00027065,
        "meta_mean_motion_ddot": 0,
        "tle_line1": "1 31296U 99025BPE 25358.74979363  .00027065  00000+0  42878-2 0  9997",
        "tle_line2": "2 31296  99.0666 275.0111 0019947 172.8681 187.2811 14.72040525975266"
      },
      "geometry": {
        "type": "Point",
        "coordinates": [
          89.77457081429627,
          -35.61776460509783
        ]
      }
    },
    {
      "type": "Feature",
      "properties": {
        "norad_id": 31297,
        "name": "FENGYUN 1C DEB",
        "group": "fengyun-1c-debris",
        "lat": -6.788985130106212,
        "lon": 138.86706177854538,
        "alt_km": 704.3567192711116,
        "timestamp": "2025-12-25T22:42:17.293146+00:00",
        "meta_object_name": "FENGYUN 1C DEB",
        "meta_object_id": "1999-025BPF",
        "meta_epoch": "2025-12-24T21:02:44.662848",
        "meta_mean_motion": 14.5712054,
        "meta_eccentricity": 0.0139723,
        "meta_inclination": 98.9349,
        "meta_ra_of_asc_node": 136.6475,
        "meta_arg_of_pericenter": 86.1849,
        "meta_mean_anomaly": 63.6545,
        "meta_ephemeris_type": 0,
        "meta_classification_type": "U",
        "meta_norad_cat_id": 31297,
        "meta_element_set_no": 999,
        "meta_rev_at_epoch": 99492,
        "meta_bstar": 0.00030781,
        "meta_mean_motion_dot": 1.526e-05,
        "meta_mean_motion_ddot": 0,
        "tle_line1": "1 31297U 99025BPF 25358.87690582  .00001526  00000+0  30781-3 0  9990",
        "tle_line2": "2 31297  98.9349 136.6475 0139723  86.1849  63.6545 14.57120540994920"
      },
      "geometry": {
        "type": "Point",
        "coordinates": [
          138.86706177854538,
          -6.788985130106212
        ]
      }
    }
  ]
}